[{"OBJECT_NAME":"STARLINK-4809","OBJECT_ID":"2022-114AR","EPOCH":"2026-03-09T22:17:05.851680","MEAN_MOTION":15.08836465,"ECCENTRICITY":0.00012479,"INCLINATION":53.2179,"RA_OF_ASC_NODE":292.6269,"ARG_OF_PERICENTER":90.4655,"MEAN_ANOMALY":269.648,"EPHEMERIS_TYPE":0,"CLASSIFICATION_TYPE":"U","NORAD_CAT_ID":53857,"ELEMENT_SET_NO":999,"REV_AT_EPOCH":19301,"BSTAR":1.2950775e-5,"MEAN_MOTION_DOT":-8.2e-7,"MEAN_MOTION_DDOT":0},{"OBJECT_NAME":"CZ-6A DEB","OBJECT_ID":"2024-126C","EPOCH":"2026-03-09T22:45:09.534528","MEAN_MOTION":15.08339588,"ECCENTRICITY":0.00034995,"INCLINATION":97.8272,"RA_OF_ASC_NODE":88.0703,"ARG_OF_PERICENTER":249.9832,"MEAN_ANOMALY":110.1019,"EPHEMERIS_TYPE":0,"CLASSIFICATION_TYPE":"U","NORAD_CAT_ID":60213,"ELEMENT_SET_NO":999,"REV_AT_EPOCH":9177,"BSTAR":0.0010886629,"MEAN_MOTION_DOT":0.00016868,"MEAN_MOTION_DDOT":0}]
